STARLINK-3922           
1 52584U 22051BA  25286.09499718 -.00003626  00000+0 -20970-3 0  9993
2 52584  53.2175  61.6967 0001265  85.1237 274.9900 15.08859645189307
STARLINK-3906           
1 52585U 22051BB  25285.74540302  .00000092  00000+0  23855-4 0  9999
2 52585  53.2154  63.2276 0001245  85.3319 274.7815 15.08851201189254
STARLINK-3910           
1 52586U 22051BC  25285.68652615  .00000581  00000+0  54557-4 0  9990
2 52586  53.2156  63.5307 0001187  92.6125 267.5003 15.08840115189246
STARLINK-3867           
1 52587U 22051BD  25285.79786476 -.00000584  00000+0 -18595-4 0  9993
2 52587  53.2162  62.8863 0001446  87.9311 272.1847 15.08846077189268
STARLINK-3917           
1 52588U 22051BE  25286.07292284  .00000214  00000+0  31544-4 0  9992
2 52588  53.2156  61.7958 0001160  90.1841 269.9284 15.08841411189303
STARLINK-4019           
1 52598U 22052A   25286.11110811  .00001786  00000+0  13029-3 0  9996
2 52598  53.2168 226.6249 0001484 101.1193 258.9966 15.08835186189301
STARLINK-4024           
1 52599U 22052B   25286.09869924 -.00000360  00000+0 -45403-5 0  9992
2 52599  53.2191 221.7886 0001829 115.7919 244.3262 15.08842349189375
STARLINK-4026           
1 52600U 22052C   25286.14285308 -.00000229  00000+0  37150-5 0  9992
2 52600  53.2179 221.4843 0001500  89.3580 270.7584 15.08835368189384
STARLINK-4027           
1 52601U 22052D   25286.15020038 -.00000155  00000+0  83529-5 0  9990
2 52601  53.2168 221.4503 0001354  99.5648 260.5498 15.08849471189382
STARLINK-4012           
1 52602U 22052E   25286.14652983  .00000714  00000+0  62932-4 0  9994
2 52602  53.2181 221.4661 0001088  78.4753 281.6361 15.08841773189380
STARLINK-4016           
1 52603U 22052F   25286.13277058 -.00000465  00000+0 -11118-4 0  9995
2 52603  53.2182 221.5410 0001532  95.9578 264.1589 15.08836297189381
STARLINK-4013           
1 52604U 22052G   25286.13916682 -.00000641  00000+0 -22179-4 0  9994
2 52604  53.2168 221.4972 0001326  89.8375 270.2769 15.08841477188581
STARLINK-4000           
1 52605U 22052H   25286.15252283 -.00000927  00000+0 -40184-4 0  9990
2 52605  53.2173 226.2169 0001399  88.3877 271.7276 15.08837136188519
STARLINK-3928           
1 52606U 22052J   25286.13548638 -.00005136  00000+0 -30465-3 0  9998
2 52606  53.2173 221.5176 0001650  91.2378 268.8804 15.08856931188580
STARLINK-3947           
1 52607U 22052K   25286.10104704 -.00002778  00000+0 -15657-3 0  9993
2 52607  53.2181 226.6821 0001697  82.6160 277.5025 15.08819973188494
STARLINK-3979           
1 52608U 22052L   25286.12813340  .00005957  00000+0  39190-3 0  9997
2 52608  53.2158 221.5496 0001260  90.9201 269.1936 15.08854773188580
