[{"OBJECT_NAME":"STARLINK-3922","OBJECT_ID":"2022-051BA","EPOCH":"2025-10-13T02:16:47.756352","MEAN_MOTION":15.08859645,"ECCENTRICITY":0.00012655,"INCLINATION":53.2175,"RA_OF_ASC_NODE":61.6967,"ARG_OF_PERICENTER":85.1237,"MEAN_ANOMALY":274.99,"EPHEMERIS_TYPE":0,"CLASSIFICATION_TYPE":"U","NORAD_CAT_ID":52584,"ELEMENT_SET_NO":999,"REV_AT_EPOCH":18930,"BSTAR":-0.00020970302,"MEAN_MOTION_DOT":-3.626e-5,"MEAN_MOTION_DDOT":0},{"OBJECT_NAME":"STARLINK-3906","OBJECT_ID":"2022-051BB","EPOCH":"2025-10-12T17:53:22.820928","MEAN_MOTION":15.08851201,"ECCENTRICITY":0.00012451,"INCLINATION":53.2154,"RA_OF_ASC_NODE":63.2276,"ARG_OF_PERICENTER":85.3319,"MEAN_ANOMALY":274.7815,"EPHEMERIS_TYPE":0,"CLASSIFICATION_TYPE":"U","NORAD_CAT_ID":52585,"ELEMENT_SET_NO":999,"REV_AT_EPOCH":18925,"BSTAR":2.3855445e-5,"MEAN_MOTION_DOT":9.2e-7,"MEAN_MOTION_DDOT":0},{"OBJECT_NAME":"STARLINK-3910","OBJECT_ID":"2022-051BC","EPOCH":"2025-10-12T16:28:35.859360","MEAN_MOTION":15.08840115,"ECCENTRICITY":0.00011879,"INCLINATION":53.2156,"RA_OF_ASC_NODE":63.5307,"ARG_OF_PERICENTER":92.6125,"MEAN_ANOMALY":267.5003,"EPHEMERIS_TYPE":0,"CLASSIFICATION_TYPE":"U","NORAD_CAT_ID":52586,"ELEMENT_SET_NO":999,"REV_AT_EPOCH":18924,"BSTAR":5.4556909e-5,"MEAN_MOTION_DOT":5.81e-6,"MEAN_MOTION_DDOT":0},{"OBJECT_NAME":"STARLINK-3867","OBJECT_ID":"2022-051BD","EPOCH":"2025-10-12T19:08:55.515264","MEAN_MOTION":15.08846077,"ECCENTRICITY":0.00014461,"INCLINATION":53.2162,"RA_OF_ASC_NODE":62.8863,"ARG_OF_PERICENTER":87.9311,"MEAN_ANOMALY":272.1847,"EPHEMERIS_TYPE":0,"CLASSIFICATION_TYPE":"U","NORAD_CAT_ID":52587,"ELEMENT_SET_NO":999,"REV_AT_EPOCH":18926,"BSTAR":-1.8595147e-5,"MEAN_MOTION_DOT":-5.84e-6,"MEAN_MOTION_DDOT":0},{"OBJECT_NAME":"STARLINK-3917","OBJECT_ID":"2022-051BE","EPOCH":"2025-10-13T01:45:00.533376","MEAN_MOTION":15.08841411,"ECCENTRICITY":0.00011609,"INCLINATION":53.2156,"RA_OF_ASC_NODE":61.7958,"ARG_OF_PERICENTER":90.1841,"MEAN_ANOMALY":269.9284,"EPHEMERIS_TYPE":0,"CLASSIFICATION_TYPE":"U","NORAD_CAT_ID":52588,"ELEMENT_SET_NO":999,"REV_AT_EPOCH":18930,"BSTAR":3.1543805e-5,"MEAN_MOTION_DOT":2.14e-6,"MEAN_MOTION_DDOT":0},{"OBJECT_NAME":"STARLINK-4019","OBJECT_ID":"2022-052A","EPOCH":"2025-10-13T02:39:59.740704","MEAN_MOTION":15.08835186,"ECCENTRICITY":0.00014844,"INCLINATION":53.2168,"RA_OF_ASC_NODE":226.6249,"ARG_OF_PERICENTER":101.1193,"MEAN_ANOMALY":258.9966,"EPHEMERIS_TYPE":0,"CLASSIFICATION_TYPE":"U","NORAD_CAT_ID":52598,"ELEMENT_SET_NO":999,"REV_AT_EPOCH":18930,"BSTAR":0.00013029453,"MEAN_MOTION_DOT":1.786e-5,"MEAN_MOTION_DDOT":0},{"OBJECT_NAME":"STARLINK-4024","OBJECT_ID":"2022-052B","EPOCH":"2025-10-13T02:22:07.614336","MEAN_MOTION":15.08842349,"ECCENTRICITY":0.0001829,"INCLINATION":53.2191,"RA_OF_ASC_NODE":221.7886,"ARG_OF_PERICENTER":115.7919,"MEAN_ANOMALY":244.3262,"EPHEMERIS_TYPE":0,"CLASSIFICATION_TYPE":"U","NORAD_CAT_ID":52599,"ELEMENT_SET_NO":999,"REV_AT_EPOCH":18937,"BSTAR":-4.540275e-6,"MEAN_MOTION_DOT":-3.6e-6,"MEAN_MOTION_DDOT":0},{"OBJECT_NAME":"STARLINK-4026","OBJECT_ID":"2022-052C","EPOCH":"2025-10-13T03:25:42.506112","MEAN_MOTION":15.08835368,"ECCENTRICITY":0.00015003,"INCLINATION":53.2179,"RA_OF_ASC_NODE":221.4843,"ARG_OF_PERICENTER":89.358,"MEAN_ANOMALY":270.7584,"EPHEMERIS_TYPE":0,"CLASSIFICATION_TYPE":"U","NORAD_CAT_ID":52600,"ELEMENT_SET_NO":999,"REV_AT_EPOCH":18938,"BSTAR":3.714997e-6,"MEAN_MOTION_DOT":-2.29e-6,"MEAN_MOTION_DDOT":0},{"OBJECT_NAME":"STARLINK-4027","OBJECT_ID":"2022-052D","EPOCH":"2025-10-13T03:36:17.312832","MEAN_MOTION":15.08849471,"ECCENTRICITY":0.00013545,"INCLINATION":53.2168,"RA_OF_ASC_NODE":221.4503,"ARG_OF_PERICENTER":99.5648,"MEAN_ANOMALY":260.5498,"EPHEMERIS_TYPE":0,"CLASSIFICATION_TYPE":"U","NORAD_CAT_ID":52601,"ELEMENT_SET_NO":999,"REV_AT_EPOCH":18938,"BSTAR":8.352938e-6,"MEAN_MOTION_DOT":-1.55e-6,"MEAN_MOTION_DDOT":0},{"OBJECT_NAME":"STARLINK-4012","OBJECT_ID":"2022-052E","EPOCH":"2025-10-13T03:31:00.177312","MEAN_MOTION":15.08841773,"ECCENTRICITY":0.00010885,"INCLINATION":53.2181,"RA_OF_ASC_NODE":221.4661,"ARG_OF_PERICENTER":78.4753,"MEAN_ANOMALY":281.6361,"EPHEMERIS_TYPE":0,"CLASSIFICATION_TYPE":"U","NORAD_CAT_ID":52602,"ELEMENT_SET_NO":999,"REV_AT_EPOCH":18938,"BSTAR":6.293204e-5,"MEAN_MOTION_DOT":7.14e-6,"MEAN_MOTION_DDOT":0},{"OBJECT_NAME":"STARLINK-4016","OBJECT_ID":"2022-052F","EPOCH":"2025-10-13T03:11:11.378112","MEAN_MOTION":15.08836297,"ECCENTRICITY":0.00015326,"INCLINATION":53.2182,"RA_OF_ASC_NODE":221.541,"ARG_OF_PERICENTER":95.9578,"MEAN_ANOMALY":264.1589,"EPHEMERIS_TYPE":0,"CLASSIFICATION_TYPE":"U","NORAD_CAT_ID":52603,"ELEMENT_SET_NO":999,"REV_AT_EPOCH":18938,"BSTAR":-1.1118237e-5,"MEAN_MOTION_DOT":-4.65e-6,"MEAN_MOTION_DDOT":0},{"OBJECT_NAME":"STARLINK-4013","OBJECT_ID":"2022-052G","EPOCH":"2025-10-13T03:20:24.013248","MEAN_MOTION":15.08841477,"ECCENTRICITY":0.00013267,"INCLINATION":53.2168,"RA_OF_ASC_NODE":221.4972,"ARG_OF_PERICENTER":89.8375,"MEAN_ANOMALY":270.2769,"EPHEMERIS_TYPE":0,"CLASSIFICATION_TYPE":"U","NORAD_CAT_ID":52604,"ELEMENT_SET_NO":999,"REV_AT_EPOCH":18858,"BSTAR":-2.2179097e-5,"MEAN_MOTION_DOT":-6.41e-6,"MEAN_MOTION_DDOT":0},{"OBJECT_NAME":"STARLINK-4000","OBJECT_ID":"2022-052H","EPOCH":"2025-10-13T03:39:37.972512","MEAN_MOTION":15.08837136,"ECCENTRICITY":0.00013996,"INCLINATION":53.2173,"RA_OF_ASC_NODE":226.2169,"ARG_OF_PERICENTER":88.3877,"MEAN_ANOMALY":271.7276,"EPHEMERIS_TYPE":0,"CLASSIFICATION_TYPE":"U","NORAD_CAT_ID":52605,"ELEMENT_SET_NO":999,"REV_AT_EPOCH":18851,"BSTAR":-4.0183833e-5,"MEAN_MOTION_DOT":-9.27e-6,"MEAN_MOTION_DDOT":0},{"OBJECT_NAME":"STARLINK-3928","OBJECT_ID":"2022-052J","EPOCH":"2025-10-13T03:15:06.023232","MEAN_MOTION":15.08856931,"ECCENTRICITY":0.00016505,"INCLINATION":53.2173,"RA_OF_ASC_NODE":221.5176,"ARG_OF_PERICENTER":91.2378,"MEAN_ANOMALY":268.8804,"EPHEMERIS_TYPE":0,"CLASSIFICATION_TYPE":"U","NORAD_CAT_ID":52606,"ELEMENT_SET_NO":999,"REV_AT_EPOCH":18858,"BSTAR":-0.00030465288,"MEAN_MOTION_DOT":-5.136e-5,"MEAN_MOTION_DDOT":0},{"OBJECT_NAME":"STARLINK-3947","OBJECT_ID":"2022-052K","EPOCH":"2025-10-13T02:25:30.464256","MEAN_MOTION":15.08819973,"ECCENTRICITY":0.00016977,"INCLINATION":53.2181,"RA_OF_ASC_NODE":226.6821,"ARG_OF_PERICENTER":82.616,"MEAN_ANOMALY":277.5025,"EPHEMERIS_TYPE":0,"CLASSIFICATION_TYPE":"U","NORAD_CAT_ID":52607,"ELEMENT_SET_NO":999,"REV_AT_EPOCH":18849,"BSTAR":-0.00015656529,"MEAN_MOTION_DOT":-2.778e-5,"MEAN_MOTION_DDOT":0},{"OBJECT_NAME":"STARLINK-3979","OBJECT_ID":"2022-052L","EPOCH":"2025-10-13T03:04:30.725760","MEAN_MOTION":15.08854773,"ECCENTRICITY":0.00012601,"INCLINATION":53.2158,"RA_OF_ASC_NODE":221.5496,"ARG_OF_PERICENTER":90.9201,"MEAN_ANOMALY":269.1936,"EPHEMERIS_TYPE":0,"CLASSIFICATION_TYPE":"U","NORAD_CAT_ID":52608,"ELEMENT_SET_NO":999,"REV_AT_EPOCH":18858,"BSTAR":0.00039190494,"MEAN_MOTION_DOT":5.957e-5,"MEAN_MOTION_DDOT":0}]
